OBJECT_NAME,OBJECT_ID,EPOCH,MEAN_MOTION,ECCENTRICITY,INCLINATION,RA_OF_ASC_NODE,ARG_OF_PERICENTER,MEAN_ANOMALY,EPHEMERIS_TYPE,CLASSIFICATION_TYPE,NORAD_CAT_ID,ELEMENT_SET_NO,REV_AT_EPOCH,BSTAR,MEAN_MOTION_DOT,MEAN_MOTION_DDOT
EYESAT A (AO-27),1993-061C,2026-06-25T04:20:35.012256,14.30944177,.0009517,98.6877,243.5916,79.1910,281.0343,0,U,22825,999,70814,.46862E-4,.79E-6,0
ITAMSAT (IO-26),1993-061D,2026-06-25T03:47:30.178752,14.31371311,.0009921,98.6825,243.4869,64.2862,295.9344,0,U,22826,999,70845,.48577E-4,.84E-6,0
RADIO ROSTO (RS15),1994-085A,2026-06-25T00:13:24.388320,11.27583413,.0156204,64.8179,290.5658,2.4278,357.7371,0,U,23439,999,29678,-.10565E-3,-.46E-6,0
JAS-2 (FO-29),1996-046B,2026-06-25T03:33:17.275968,13.53274732,.0350915,98.5234,23.9293,75.8351,288.1508,0,U,24278,999,47424,.17093E-4,-.16E-6,0
FORTE,1997-047A,2026-06-24T22:34:05.367360,14.27947855,.0024637,69.9540,356.5079,267.9935,91.8366,0,U,24920,999,49979,.8417E-4,.151E-5,0
TECHSAT 1B (GO-32),1998-043D,2026-06-23T22:45:24.588000,14.24429485,.00013897,99.0070,167.8775,150.1095,210.0162,0,U,25397,999,45229,.36578906E-4,.38E-6,0
ISS (ZARYA),1998-067A,2026-06-25T04:30:07.020000,15.49415960,.0004409,51.6326,260.4913,228.8642,131.1966,0,U,25544,999,57299,.17725E-3,.947E-4,0
IMAGE,2000-017A,2026-06-21T10:12:18.318528,1.68666410,.74289842,94.2324,315.4279,287.3239,9.1864,0,U,26113,999,16157,0,-.86E-6,0
CLUSTER II-FM7 (SAMBA),2000-041A,2026-06-26T01:33:12.192480,0.44870397,.90618129,149.9012,52.3742,269.6784,359.6419,0,U,26410,999,2035,0,.5882E-4,0
CLUSTER II-FM8 (TANGO),2000-045B,2026-06-21T22:36:54.211968,0.44420336,.90628137,150.1352,52.7746,269.8657,2.6673,0,U,26464,999,2033,0,.4849E-4,0
ODIN,2001-007A,2026-06-25T02:08:31.250976,15.78592061,.0006632,97.3797,217.5522,132.9735,227.2089,0,U,26702,999,39064,.14705E-2,.262742E-2,0
OMNI-M1,2001-026A,2026-06-21T13:26:06.294048,3.92401787,.00140727,44.8291,244.2559,54.4534,305.7323,0,U,26857,999,20574,0,-.2E-6,0
PCSAT (NO-44),2001-043C,2026-06-25T04:35:47.964768,14.31958480,.0006049,67.0494,223.5692,265.0177,95.0235,0,U,26931,999,29159,.62978E-4,.86E-6,0
PROBA-1,2001-049B,2026-06-25T04:02:11.616864,15.07528056,.005632,97.9602,184.9791,95.7794,264.9858,0,U,26958,999,34482,.25128E-3,.3886E-4,0
SAUDISAT 1C (SO-50),2002-058C,2026-06-25T04:18:46.446336,14.83062534,.0075079,64.5519,104.2569,260.9817,98.2786,0,U,27607,999,26564,.12668E-3,.928E-5,0
CORIOLIS,2003-001A,2026-06-25T00:27:04.247424,14.19946790,.0013835,98.7125,182.7840,185.5642,174.5383,0,U,27640,999,21533,.6376E-4,.92E-6,0
CUTE-1 (CO-55),2003-031E,2026-06-24T23:24:16.614720,14.24339992,.0010007,98.6736,184.4362,156.0422,204.1225,0,U,27844,999,19278,.13189E-3,.261E-5,0
CUBESAT XI-IV (CO-57),2003-031J,2026-06-24T23:13:17.051808,14.23624582,.0009537,98.6767,184.1351,174.0960,186.0333,0,U,27848,999,19248,.11865E-3,.227E-5,0
MOZHAETS 4 (RS22),2003-042A,2026-06-25T05:37:54.041664,14.73478873,.001,98.3476,0.8208,240.8202,230.4835,0,U,27939,999,21673,.13401E-3,.817E-5,0
